#dP2019  8 22  0  0  0.00000000      96 __u+U ITR00 FIT  IAC
## 2067 345600.00000000   900.00000000 58717 0.0000000000000
+  114   C01C02C03C04C05C06C07C08C09C10C11C12C13C14C16C19C20
+        C21C22C23C24C25C26C27C28C29C30C32C33C34C36E01E02E03
+        E04E05E07E08E09E11E12E13E14E15E18E19E21E24E25E26E27
+        E30E31E33E36G01G02G03G04G05G06G07G08G09G10G11G12G13
+        G14G15G16G17G18G19G20G21G22G23G24G25G26G27G28G29G30
+        G31G32J01J02J03J07R01R02R03R04R05R06R07R08R09R11R12
+        R13R14R15R16R17R18R19R20R21R22R23R24  0  0  0  0  0
++        13 13 13 13 13  8  9  8  8  8  8  8  8  8  9  8  8
++         7  8  8  8  8  8  8  8  8  8  8  8  8 10  5  4  5
++         5  5  5  4  5  5  5  5  5  5  5  5  5  5  4  5  5
++         5  6  5  5  3  3  3  4  3  3  3  3  3  3  3  3  3
++         3  3  3  3  3  3  3  3  3  3  3  3  3  3  3  3  3
++         3  3  8  8  8 13  6  5  5  5  5 10  5  5  6  5  6
++         6  5  5  6  5  5  6  6  5  5  5  6  0  0  0  0  0
%c M  cc GPS ccc cccc cccc cccc cccc ccccc ccccc ccccc ccccc
%c cc cc ccc ccc cccc cccc cccc cccc ccccc ccccc ccccc ccccc
%f  0.0000000  0.000000000  0.00000000000  0.000000000000000
%f  0.0000000  0.000000000  0.00000000000  0.000000000000000
%i    0    0    0    0      0      0      0      0         0
%i    0    0    0    0      0      0      0      0         0
/* INFORMATION & ANALYSIS CENTER (IAC) OF MCC   (RAPID DATA)
/* S/V CLOCKS ARE ALIGNED TO GPS & GLONASS TIME RESPECTIVELY
/* USING THE BROADCAST EPHEMERIS                            
/* PCV:IGS14_2062 OL/AL:FES2004  NONE     YN ORB:CoN CLK:CoN
*  2019 08 22  1 15  0.00000000
PC01 -32298.795627  27066.705486    816.817502    190.218837
PC02   4312.199946  41957.356489   -169.144006    -43.439717
PC03 -14816.491218  39453.648069    556.954236   -142.730676
PC04 -39584.970106  14464.037404    666.704449    122.872512
PC05  21914.858281  36007.177320   -372.383803   -253.616375
PC06 -13152.869161  21327.693963 -33587.409254    459.740530
PC07 -21404.151923  34578.050795  10309.985763    -80.668401
PC08  -6787.338043  33849.508205  24484.991009    165.180709
PC09   1593.767604  25670.226188 -33120.971706    -91.696267
PC10 -10778.364778  35139.388656  20443.071779   -103.460375
PC11 -13158.156400 -21146.254802 -12469.922900    200.049058
PC12  13449.981401  -8594.624384 -22842.216859   -232.713383
PC13   2054.086404  40277.254880  12797.285405   -928.836953
PC14   6984.558116 -18092.337097  20114.261601    508.762963
PC16 -10901.114176  21834.610606 -34367.278120   -876.637655
PC19  14339.032555  10333.124213 -21575.061270    178.453337
PC20  -5286.962111  17830.324780 -20778.559683      8.878376
PC21  22351.450526 -14902.744367   7618.699671    350.318865
PC22  25939.398465  -3239.314357  -9810.126524    -15.706910
PC23 -16207.865840   -272.007994 -22701.174410   -927.229872
PC24   3119.199725 -27679.901450  -1579.360726   -925.557809
PC25  -9938.906843 -19392.560451 -17424.119074   -322.579138
PC26  12884.489710 -20033.440775  14522.528759    360.501205
PC27 -13874.351474   8842.777329  22525.337901    175.927027
PC28 -23535.401005  -7598.155963  12913.509347    169.925749
PC29  20185.651421  18810.976510   4179.709107    107.680858
PC30   4452.674874  19900.564274  19040.493609    179.494786
PC32 -22222.953388  15051.297565  -7604.155575   -908.515229
PC33 -14310.146441 -10364.515654  21600.744106   -326.484737
PC34  -4651.059245 -20042.974873 -18865.958109    -16.430103
PC36   9424.448757  19724.704142  17367.905968   -730.095906
PE01   6464.536714  18026.933991  22572.635621   -673.596859
PE02  -6503.135504 -17983.873649 -22588.280129     75.107849
PE03 -17106.028449 -14269.617816  19487.461698   -202.181774
PE04  29148.068126   3456.995324  -3831.642789   -349.378756
PE05   5058.516221 -16803.507275  23842.931986   -455.432762
PE07 -24143.787304   9495.572017 -14230.229992   -250.914353
PE08 -29187.827489  -3134.197877   3739.370285   6303.933364
PE09  24054.257771  -9628.465604  14338.340831   6340.500812
PE11  12785.309166 -10537.581691 -24540.485327   5617.603968
PE12  20238.368333  10610.287427 -18811.947450   6236.613595
PE13 -12749.913619  10416.719546  24597.699142    391.771516
PE14 -19217.026754   4152.612136  14017.328200   -690.452272
PE15 -20209.370396 -10198.786712  19071.103980    898.459770
PE18  17862.839588 -13055.315951 -23483.530528   -785.102590
PE19  15173.762754  14823.490454 -20637.719669     -4.405714
PE21  -9410.039374  26650.104439   8780.612221   -550.708133
PE24  19840.565784 -19565.354952   9970.637524   5911.703245
PE25   9487.977985 -26661.796078  -8688.952675   1703.359397
PE26   2007.747193  25102.985392  15560.523931   4196.744560
PE27 -19762.177271  19543.319227 -10163.975398    403.337369
PE30 -18579.677010    981.453374 -23023.766115   4609.784100
PE31  18498.066170   -990.398494  23102.410302   -467.583422
PE33  15844.276329  24891.177346  -2354.489748   -469.842668
PE36  -2202.715877 -24983.500337 -15720.905151    671.880750
PG01 -14092.440122   4866.456701  21759.787128   -103.989207
PG02  14399.821989  16791.141482 -14192.949856   -288.116076
PG03 -22412.918336  12064.053472   7373.159195     -3.550021
PG04 -20267.549624 -13447.377623 -11598.506690    123.999115
PG05  16082.973063   5419.799217 -20609.512457     -0.795641
PG06   6138.892478  25720.056171  -2280.365805    -32.393688
PG07  -7718.928180  19891.596471 -15227.658821    -90.102774
PG08 -25468.038878  -3848.618554   6937.656798     -3.589955
PG09 -12331.886134  11280.576977 -20685.853030    -12.184700
PG10   5402.516109 -19798.451872  16806.439390    -23.235758
PG11 -17263.936519   1958.248775  19497.685608   -528.743567
PG12  22906.333148  -8215.847947  10228.445879    211.747285
PG13  23064.945646  13141.159058  -1701.387206    -48.464155
PG14 -14131.927560 -17593.522424  14480.908222    -65.372203
PG15  25806.482551   1528.793905   6650.943877   -292.500939
PG16 -14661.821615  -7066.953060 -21265.316505    -67.087847
PG17   6157.597844  17008.657637  19888.383479    111.139463
PG18 -15827.143722  -4705.798487  20323.711843     79.713434
PG19  12341.873118  17430.084568  15461.172182   -277.751142
PG20  12222.480896 -21991.391997   8132.907535    526.561602
PG21   2527.467182 -23698.146940 -11114.740193   -132.290967
PG22 -21686.086449   6430.562202  14073.074792   -746.512841
PG23 -22730.903621   2561.433770 -13480.502086   -170.998102
PG24  15512.389252  -2264.121945  21291.008959     -1.109757
PG25  19288.122198 -17957.245682  -2126.347743     -8.594802
PG26  -6190.591432 -14742.065180 -21200.322196     20.705383
PG27 -22907.277217 -12494.348818  -5866.965587    -31.185544
PG28  -6818.729746  19163.139030  17739.484903    764.198457
PG29  15437.298555  -7810.490616 -20195.570167    118.683552
PG30   -848.902130  25785.436756  -5829.328071    -24.506540
PG31  -6723.152283 -25080.164942  -4304.428273     15.720453
PG32  -6602.083939 -16925.797429  19479.000335     28.119998
PJ01 -34687.133216  21127.161597  -6516.722653   -256.654790
PJ02 -23444.640046  31538.951528 -10714.624312     -2.751452
PJ03 -27657.178638  22203.247107  27838.685911     -0.853120
PJ07 -25384.358008  33660.558112    -31.340631     -0.046517
PR01 -22685.574935   -772.713795  11623.127708     48.517049
PR02 -22329.301804   8670.606620  -8805.480364    384.402377
PR03  -7692.705035  11859.074105 -21203.777259      0.380701
PR04  11955.030080   7827.222228 -21108.959530    318.596703
PR05  23707.698138   -305.043057  -9371.825820     34.286784
PR06  21576.594571  -9547.313874   9653.669127    160.454392
PR07   7025.935870 -11852.405678  21492.960478    -25.425050
PR08 -11186.267110  -8177.945564  21470.427973     16.043032
PR09  12475.799156 -18884.033600  11857.145432     86.611579
PR11  -3659.040039 -17147.598106 -18529.681792    -76.792240
PR12 -11165.959390   -676.536457 -22891.872777     54.801977
PR13 -12553.086297  17280.536837 -13946.533024    -27.428962
PR14  -6758.312344  24403.255713   3002.575113     42.190713
PR15   3046.491264  17706.658867  18130.445160    103.622802
PR16  11377.426734    451.819657  22802.108449      5.746155
PR17   2925.013107  16653.696014  19118.618051    253.844398
PR18  14618.146216  20259.083226   5032.146086      4.673684
PR19  18150.333331  13571.620075 -11721.686307    -49.581845
PR20  10892.112719  -2921.319932 -22874.628329   -388.127087
PR21  -3484.928348 -16936.715475 -18744.842874    -67.481571
PR22 -15914.441690 -19901.125742  -2129.587815    -34.150708
PR23 -17454.499775  -8963.175966  16283.051769    248.836054
PR24  -9564.974223   4846.915026  23114.279966   -183.908825
EOF
